start=new Date('2022-08-03T00:00:00.000Z').valueOf();
sats=[{"OBJECT_TYPE":"PAYLOAD","TIME_SYSTEM":"UTC","PERIAPSIS":"574.732","APOAPSIS":"579.373","REF_FRAME":"TEME","COUNTRY_CODE":"US","CENTER_NAME":"EARTH","OBJECT_ID":"2021-082N","SITE":"AFWTR","SEMIMAJOR_AXIS":"6955.188","LAUNCH_DATE":"2021-09-14","MEAN_ELEMENT_THEORY":"SGP4","EPOCH":"2022-08-02T11:47:50.436672","OBJECT_NAME":"STARLINK-3042","BSTAR":"0.00015571000000","MEAN_ANOMALY":"101.8366","DECAY_DATE":null,"GP_ID":"209430056","ECCENTRICITY":"0.00033360","INCLINATION":"70.0012","TLE_LINE2":"2 49142  70.0012 330.1202 0003336 258.2418 101.8366 14.96716304 49973","MEAN_MOTION_DOT":"0.00001691","ARG_OF_PERICENTER":"258.2418","RCS_SIZE":"LARGE","NORAD_CAT_ID":"49142","REV_AT_EPOCH":"4997","PERIOD":"96.211","ELEMENT_SET_NO":"999","RA_OF_ASC_NODE":"330.1202","FILE":"3527697","MEAN_MOTION_DDOT":"0.0000000000000","EPHEMERIS_TYPE":"0","CLASSIFICATION_TYPE":"U","MEAN_MOTION":"14.96716304","TLE_LINE1":"1 49142U 21082N   22214.49155598  .00001691  00000-0  15571-3 0  9999"},{"TLE_LINE2":"2 49143  70.0008 350.4090 0003282 248.4193 111.6616 14.96722678 50587","MEAN_MOTION_DOT":"-0.00000821","INCLINATION":"70.0008","ECCENTRICITY":"0.00032820","NORAD_CAT_ID":"49143","ARG_OF_PERICENTER":"248.4193","RCS_SIZE":"LARGE","ELEMENT_SET_NO":"999","RA_OF_ASC_NODE":"350.4090","PERIOD":"96.210","REV_AT_EPOCH":"5058","TLE_LINE1":"1 49143U 21082P   22214.47759350 -.00000821  00000-0 -63710-4 0  9999","MEAN_MOTION":"14.96722678","MEAN_MOTION_DDOT":"0.0000000000000","FILE":"3527697","CLASSIFICATION_TYPE":"U","EPHEMERIS_TYPE":"0","REF_FRAME":"TEME","APOAPSIS":"579.316","OBJECT_TYPE":"PAYLOAD","PERIAPSIS":"574.750","TIME_SYSTEM":"UTC","SITE":"AFWTR","SEMIMAJOR_AXIS":"6955.168","CENTER_NAME":"EARTH","OBJECT_ID":"2021-082P","COUNTRY_CODE":"US","BSTAR":"-0.00006371000000","MEAN_ANOMALY":"111.6616","LAUNCH_DATE":"2021-09-14","MEAN_ELEMENT_THEORY":"SGP4","EPOCH":"2022-08-02T11:27:44.078400","OBJECT_NAME":"STARLINK-3109","GP_ID":"209429807","DECAY_DATE":null},{"SITE":"AFWTR","SEMIMAJOR_AXIS":"6950.196","COUNTRY_CODE":"US","CENTER_NAME":"EARTH","OBJECT_ID":"2021-082Q","APOAPSIS":"574.376","REF_FRAME":"TEME","OBJECT_TYPE":"PAYLOAD","TIME_SYSTEM":"UTC","PERIAPSIS":"569.746","GP_ID":"209428555","DECAY_DATE":null,"BSTAR":"0.00007494400000","MEAN_ANOMALY":"100.8528","EPOCH":"2022-08-02T11:08:48.955200","LAUNCH_DATE":"2021-09-14","MEAN_ELEMENT_THEORY":"SGP4","OBJECT_NAME":"STARLINK-3100","NORAD_CAT_ID":"49144","ARG_OF_PERICENTER":"259.2256","RCS_SIZE":"LARGE","TLE_LINE2":"2 49144  70.0005  10.6069 0003331 259.2256 100.8528 14.98328880 48972","MEAN_MOTION_DOT":"0.00000801","ECCENTRICITY":"0.00033310","INCLINATION":"70.0005","MEAN_MOTION":"14.98328880","TLE_LINE1":"1 49144U 21082Q   22214.46445550  .00000801  00000-0  74944-4 0  9990","FILE":"3527697","MEAN_MOTION_DDOT":"0.0000000000000","EPHEMERIS_TYPE":"0","CLASSIFICATION_TYPE":"U","PERIOD":"96.107","RA_OF_ASC_NODE":"10.6069","ELEMENT_SET_NO":"999","REV_AT_EPOCH":"4897"},{"SEMIMAJOR_AXIS":"6955.185","SITE":"AFWTR","COUNTRY_CODE":"US","CENTER_NAME":"EARTH","OBJECT_ID":"2021-082R","APOAPSIS":"579.191","REF_FRAME":"TEME","TIME_SYSTEM":"UTC","PERIAPSIS":"574.909","OBJECT_TYPE":"PAYLOAD","DECAY_DATE":null,"GP_ID":"209429305","MEAN_ANOMALY":"104.9453","BSTAR":"-0.00006136100000","OBJECT_NAME":"STARLINK-3119","LAUNCH_DATE":"2021-09-14","MEAN_ELEMENT_THEORY":"SGP4","EPOCH":"2022-08-02T11:29:39.964992","NORAD_CAT_ID":"49145","RCS_SIZE":"LARGE","ARG_OF_PERICENTER":"255.1364","MEAN_MOTION_DOT":"-0.00000794","TLE_LINE2":"2 49145  69.9979 330.1544 0003078 255.1364 104.9453 14.96717213 49963","ECCENTRICITY":"0.00030780","INCLINATION":"69.9979","MEAN_MOTION":"14.96717213","TLE_LINE1":"1 49145U 21082R   22214.47893478 -.00000794  00000-0 -61361-4 0  9990","EPHEMERIS_TYPE":"0","CLASSIFICATION_TYPE":"U","FILE":"3527697","MEAN_MOTION_DDOT":"0.0000000000000","PERIOD":"96.211","RA_OF_ASC_NODE":"330.1544","ELEMENT_SET_NO":"999","REV_AT_EPOCH":"4996"},{"TLE_LINE1":"1 49146U 21082S   22214.47274099  .00001253  00000-0  11748-3 0  9995","MEAN_MOTION":"14.96718685","MEAN_MOTION_DDOT":"0.0000000000000","FILE":"3527697","CLASSIFICATION_TYPE":"U","EPHEMERIS_TYPE":"0","ELEMENT_SET_NO":"999","RA_OF_ASC_NODE":"350.4253","PERIOD":"96.210","REV_AT_EPOCH":"5062","NORAD_CAT_ID":"49146","ARG_OF_PERICENTER":"257.8210","RCS_SIZE":"LARGE","TLE_LINE2":"2 49146  70.0016 350.4253 0003187 257.8210 102.2591 14.96718685 50624","MEAN_MOTION_DOT":"0.00001253","INCLINATION":"70.0016","ECCENTRICITY":"0.00031870","GP_ID":"209429557","DECAY_DATE":null,"BSTAR":"0.00011748000000","MEAN_ANOMALY":"102.2591","LAUNCH_DATE":"2021-09-14","EPOCH":"2022-08-02T11:20:44.821536","MEAN_ELEMENT_THEORY":"SGP4","OBJECT_NAME":"STARLINK-3116","SITE":"AFWTR","SEMIMAJOR_AXIS":"6955.180","CENTER_NAME":"EARTH","OBJECT_ID":"2021-082S","COUNTRY_CODE":"US","REF_FRAME":"TEME","APOAPSIS":"579.262","OBJECT_TYPE":"PAYLOAD","PERIAPSIS":"574.829","TIME_SYSTEM":"UTC"},{"DECAY_DATE":null,"GP_ID":"209430307","MEAN_ANOMALY":"99.3585","BSTAR":"0.00007521700000","OBJECT_NAME":"STARLINK-3071","MEAN_ELEMENT_THEORY":"SGP4","LAUNCH_DATE":"2021-09-14","EPOCH":"2022-08-02T11:40:51.009600","SEMIMAJOR_AXIS":"6955.187","SITE":"AFWTR","CENTER_NAME":"EARTH","OBJECT_ID":"2021-082T","COUNTRY_CODE":"US","REF_FRAME":"TEME","APOAPSIS":"579.324","PERIAPSIS":"574.780","TIME_SYSTEM":"UTC","OBJECT_TYPE":"PAYLOAD","TLE_LINE1":"1 49147U 21082T   22214.48670150  .00000769  00000-0  75217-4 0  9998","MEAN_MOTION":"14.96716529","CLASSIFICATION_TYPE":"U","EPHEMERIS_TYPE":"0","MEAN_MOTION_DDOT":"0.0000000000000","FILE":"3527697","RA_OF_ASC_NODE":"330.1284","ELEMENT_SET_NO":"999","PERIOD":"96.211","REV_AT_EPOCH":"4997","NORAD_CAT_ID":"49147","RCS_SIZE":"LARGE","ARG_OF_PERICENTER":"260.7204","MEAN_MOTION_DOT":"0.00000769","TLE_LINE2":"2 49147  70.0018 330.1284 0003267 260.7204  99.3585 14.96716529 49971","INCLINATION":"70.0018","ECCENTRICITY":"0.00032670"},{"MEAN_MOTION_DOT":"0.00000758","TLE_LINE2":"2 49148  70.0007 350.4306 0003214 254.1060 105.9744 14.96721582 49469","INCLINATION":"70.0007","ECCENTRICITY":"0.00032140","NORAD_CAT_ID":"49148","RCS_SIZE":"LARGE","ARG_OF_PERICENTER":"254.1060","RA_OF_ASC_NODE":"350.4306","ELEMENT_SET_NO":"999","PERIOD":"96.210","REV_AT_EPOCH":"4946","TLE_LINE1":"1 49148U 21082U   22214.46788110  .00000758  00000-0  74205-4 0  9997","MEAN_MOTION":"14.96721582","CLASSIFICATION_TYPE":"U","EPHEMERIS_TYPE":"0","MEAN_MOTION_DDOT":"0.0000000000000","FILE":"3527697","REF_FRAME":"TEME","APOAPSIS":"579.272","PERIAPSIS":"574.801","TIME_SYSTEM":"UTC","OBJECT_TYPE":"PAYLOAD","SEMIMAJOR_AXIS":"6955.171","SITE":"AFWTR","CENTER_NAME":"EARTH","OBJECT_ID":"2021-082U","COUNTRY_CODE":"US","MEAN_ANOMALY":"105.9744","BSTAR":"0.00007420500000","OBJECT_NAME":"STARLINK-3048","LAUNCH_DATE":"2021-09-14","EPOCH":"2022-08-02T11:13:44.927040","MEAN_ELEMENT_THEORY":"SGP4","GP_ID":"209429055","DECAY_DATE":null},{"REF_FRAME":"TEME","APOAPSIS":"574.350","OBJECT_TYPE":"PAYLOAD","PERIAPSIS":"569.792","TIME_SYSTEM":"UTC","SITE":"AFWTR","SEMIMAJOR_AXIS":"6950.206","OBJECT_ID":"2021-082V","CENTER_NAME":"EARTH","COUNTRY_CODE":"US","BSTAR":"0.00008311500000","MEAN_ANOMALY":"101.0218","EPOCH":"2022-08-02T20:38:45.530016","LAUNCH_DATE":"2021-09-14","MEAN_ELEMENT_THEORY":"SGP4","OBJECT_NAME":"STARLINK-3053","GP_ID":"209456771","DECAY_DATE":null,"TLE_LINE2":"2 49149  70.0015   9.5986 0003279 259.0572 101.0218 14.98325854 50221","MEAN_MOTION_DOT":"0.00000899","INCLINATION":"70.0015","ECCENTRICITY":"0.00032790","NORAD_CAT_ID":"49149","ARG_OF_PERICENTER":"259.0572","RCS_SIZE":"LARGE","RA_OF_ASC_NODE":"9.5986","ELEMENT_SET_NO":"999","PERIOD":"96.107","REV_AT_EPOCH":"5022","TLE_LINE1":"1 49149U 21082V   22214.86024919  .00000899  00000-0  83115-4 0  9998","MEAN_MOTION":"14.98325854","MEAN_MOTION_DDOT":"0.0000000000000","FILE":"3527804","CLASSIFICATION_TYPE":"U","EPHEMERIS_TYPE":"0"},{"MEAN_MOTION":"14.98344717","TLE_LINE1":"1 49150U 21082W   22214.85547490  .00002642  00000-0  22905-3 0  9990","EPHEMERIS_TYPE":"0","CLASSIFICATION_TYPE":"U","FILE":"3527804","MEAN_MOTION_DDOT":"0.0000000000000","PERIOD":"96.106","RA_OF_ASC_NODE":"9.6128","ELEMENT_SET_NO":"999","REV_AT_EPOCH":"5022","NORAD_CAT_ID":"49150","RCS_SIZE":"LARGE","ARG_OF_PERICENTER":"257.4035","MEAN_MOTION_DOT":"0.00002642","TLE_LINE2":"2 49150  70.0029   9.6128 0003115 257.4035 102.6776 14.98344717 50227","ECCENTRICITY":"0.00031150","INCLINATION":"70.0029","DECAY_DATE":null,"GP_ID":"209457022","MEAN_ANOMALY":"102.6776","BSTAR":"0.00022905000000","OBJECT_NAME":"STARLINK-3104","LAUNCH_DATE":"2021-09-14","MEAN_ELEMENT_THEORY":"SGP4","EPOCH":"2022-08-02T20:31:53.031360","SEMIMAJOR_AXIS":"6950.147","SITE":"AFWTR","COUNTRY_CODE":"US","CENTER_NAME":"EARTH","OBJECT_ID":"2021-082W","APOAPSIS":"574.177","REF_FRAME":"TEME","TIME_SYSTEM":"UTC","PERIAPSIS":"569.847","OBJECT_TYPE":"PAYLOAD"},{"RA_OF_ASC_NODE":"330.1818","ELEMENT_SET_NO":"999","PERIOD":"96.210","REV_AT_EPOCH":"5117","TLE_LINE1":"1 49151U 21082X   22214.46916528  .00000944  00000-0  90463-4 0  9998","MEAN_MOTION":"14.96720682","CLASSIFICATION_TYPE":"U","EPHEMERIS_TYPE":"0","MEAN_MOTION_DDOT":"0.0000000000000","FILE":"3527455","MEAN_MOTION_DOT":"0.00000944","TLE_LINE2":"2 49151  69.9989 330.1818 0003320 259.4596 100.6188 14.96720682 51177","INCLINATION":"69.9989","ECCENTRICITY":"0.00033200","NORAD_CAT_ID":"49151","RCS_SIZE":"LARGE","ARG_OF_PERICENTER":"259.4596","MEAN_ANOMALY":"100.6188","BSTAR":"0.00009046300000","OBJECT_NAME":"STARLINK-3102","EPOCH":"2022-08-02T11:15:35.880192","LAUNCH_DATE":"2021-09-14","MEAN_ELEMENT_THEORY":"SGP4","DECAY_DATE":null,"GP_ID":"209399656","REF_FRAME":"TEME","APOAPSIS":"579.348","PERIAPSIS":"574.730","TIME_SYSTEM":"UTC","OBJECT_TYPE":"PAYLOAD","SEMIMAJOR_AXIS":"6955.174","SITE":"AFWTR","CENTER_NAME":"EARTH","OBJECT_ID":"2021-082X","COUNTRY_CODE":"US"}];
